     2.100          NAVIGATION                              RINEX VERSION / TYPE
fic2rin                                 05/19/2012 00:08:11 PGM / RUN BY / DATE
                                                            END OF HEADER
11 12  5 18 18  0  0.0 -.262593850493D-03 -.386535248253D-11  .000000000000D+00
     .101000000000D+03 -.395625000000D+02  .625490339898D-08  .264562251568D+01
    -.211223959923D-05  .128920961870D-01  .594556331635D-05  .515367219162D+04
     .496800000000D+06  .143423676491D-06 -.125479229950D+01 -.141561031342D-06
     .887697512850D+00  .223968750000D+03  .104565945424D+01 -.866428947386D-08
    -.373944147703D-09  .100000000000D+01  .168800000000D+04  .000000000000D+00
     .240000000000D+01  .000000000000D+00 -.116415321827D-07  .101000000000D+03
     .489606000000D+06  .400000000000D+01
12 12  5 18 18  0  0.0  .696731731296D-04  .204636307899D-11  .000000000000D+00
     .210000000000D+02 -.183750000000D+02  .385158900557D-08  .229706318197D+01
    -.990927219391D-06  .412697158754D-02  .111050903797D-04  .515380220985D+04
     .496800000000D+06 -.987201929092D-07 -.305167926975D+01  .577419996262D-07
     .980068243571D+00  .175625000000D+03  .426569342268D-01 -.756460081027D-08
     .255010622216D-09  .100000000000D+01  .168800000000D+04  .000000000000D+00
     .240000000000D+01  .000000000000D+00 -.121071934700D-07  .210000000000D+02
     .489606000000D+06  .400000000000D+01
13 12  5 18 18  0  0.0  .206606462598D-03 -.238742359215D-11  .000000000000D+00
     .870000000000D+02  .370000000000D+02  .438803992233D-08 -.147098776800D+01
     .201910734177D-05  .499773444608D-02  .217929482460D-05  .515366838264D+04
     .496800000000D+06 -.124797224998D-06  .120450172707D+01  .577419996262D-07
     .985704038918D+00  .356656250000D+03  .199302442602D+01 -.824248618978D-08
     .164292557730D-09  .100000000000D+01  .168800000000D+04  .000000000000D+00
     .240000000000D+01  .000000000000D+00 -.111758708954D-07  .870000000000D+02
     .489606000000D+06  .400000000000D+01
14 12  5 18 18  0  0.0  .203069299459D-03  .909494701773D-12  .000000000000D+00
     .650000000000D+02  .278437500000D+02  .450733060555D-08 -.130722750837D+01
     .162608921528D-05  .629975751508D-02  .170804560184D-05  .515358789062D+04
     .496800000000D+06  .614672899246D-07  .117785030306D+01  .856816768646D-07
     .978566246561D+00  .355687500000D+03 -.206874345805D+01 -.826212986516D-08
     .146791828755D-09  .100000000000D+01  .168800000000D+04  .000000000000D+00
     .240000000000D+01  .000000000000D+00 -.884756445885D-08  .650000000000D+02
     .489606000000D+06  .400000000000D+01
15 12  5 18 18  0  0.0 -.913776457310D-04 -.113686837722D-12  .000000000000D+00
     .110000000000D+03  .516562500000D+02  .519593071708D-08 -.179444653324D+01
     .246427953243D-05  .437398417853D-02  .179558992386D-05  .515356046104D+04
     .496800000000D+06  .558793544769D-07  .109028698155D+01 -.931322574615D-07
     .945470633298D+00  .337531250000D+03  .548887477767D-01 -.862000191482D-08
     .230366738556D-09  .100000000000D+01  .168800000000D+04  .000000000000D+00
     .240000000000D+01  .000000000000D+00 -.102445483208D-07  .110000000000D+03
     .489606000000D+06  .400000000000D+01
16 12  5 18 18  0  0.0 -.235298648477D-03 -.125055521494D-11  .000000000000D+00
     .490000000000D+02 -.218125000000D+02  .390123393062D-08 -.201441595880D-01
    -.125542283058D-05  .665375427343D-02  .108722597361D-04  .515367215919D+04
     .496800000000D+06  .949949026108D-07 -.303354242249D+01  .372529029846D-07
     .980903577108D+00  .179812500000D+03 -.206560858260D-01 -.768639159763D-08
     .280368821344D-09  .100000000000D+01  .168800000000D+04  .000000000000D+00
     .240000000000D+01  .000000000000D+00 -.977888703346D-08  .490000000000D+02
     .489606000000D+06  .400000000000D+01
18 12  5 18 18  0  0.0  .196316279471D-03  .181898940355D-11  .000000000000D+00
     .290000000000D+02  .959687500000D+02  .505699635848D-08  .495745398586D+00
     .498071312904D-05  .132832023082D-01  .924244523048D-05  .515369907951D+04
     .496800000000D+06 -.210478901863D-06  .746499973349D-01  .152736902237D-06
     .930250088353D+00  .187500000000D+03 -.217969659700D+01 -.841356474446D-08
     .175007289756D-10  .100000000000D+01  .168800000000D+04  .000000000000D+00
     .240000000000D+01  .000000000000D+00 -.107102096081D-07  .290000000000D+02
     .489606000000D+06  .400000000000D+01
19 12  5 18 18  0  0.0 -.266532879323D-03 -.375166564481D-11  .000000000000D+00
     .390000000000D+02  .553125000000D+01  .480019994760D-08 -.182283249826D+01
     .255182385445D-06  .832818110939D-02  .520236790180D-05  .515356393623D+04
     .496800000000D+06 -.745058059692D-07 -.194032676526D+01 -.726431608200D-07
     .959919374849D+00  .280625000000D+03  .161302778154D+00 -.807212195057D-08
     .223580741607D-09  .100000000000D+01  .168800000000D+04  .000000000000D+00
     .240000000000D+01  .000000000000D+00 -.144354999065D-07  .390000000000D+02
     .489606000000D+06  .400000000000D+01
20 12  5 18 18  0  0.0  .634333118796D-04  .113686837722D-12  .000000000000D+00
     .490000000000D+02  .895312500000D+02  .493020536284D-08  .850977840426D+00
     .451877713203D-05  .498424365651D-02  .101923942566D-04  .515371005821D+04
     .496800000000D+06 -.465661287308D-07  .209492619237D-01  .149011611938D-07
     .930700329187D+00  .163500000000D+03  .129522529250D+01 -.830748889740D-08
     .667884962947D-10  .100000000000D+01  .168800000000D+04  .000000000000D+00
     .240000000000D+01  .000000000000D+00 -.791624188423D-08  .490000000000D+02
     .489606000000D+06  .400000000000D+01
21 12  5 18 18  0  0.0 -.224511139095D-03 -.250111042988D-11  .000000000000D+00
     .830000000000D+02 -.272187500000D+02  .520700260684D-08  .156363781074D+01
    -.146590173244D-05  .191468495177D-01  .889971852303D-05  .515361349678D+04
     .496800000000D+06 -.419095158577D-06 -.975982679105D+00 -.260770320892D-07
     .931168738001D+00  .198375000000D+03 -.225275971443D+01 -.842106505688D-08
    -.559309011751D-09  .100000000000D+01  .168800000000D+04  .000000000000D+00
     .340000000000D+01  .000000000000D+00 -.111758708954D-07  .830000000000D+02
     .489606000000D+06  .400000000000D+01
22 12  5 18 18  0  0.0  .143885146827D-03  .000000000000D+00  .000000000000D+00
     .690000000000D+02  .102343750000D+03  .505128183474D-08 -.321759079723D+00
     .534765422344D-05  .607152760495D-02  .942870974541D-05  .515368618584D+04
     .496800000000D+06 -.186264514923D-07  .780448640476D-01  .117346644402D-06
     .927969480991D+00  .182687500000D+03 -.201737993615D+01 -.834391898629D-08
     .150363406097D-09  .100000000000D+01  .168800000000D+04  .000000000000D+00
     .240000000000D+01  .000000000000D+00 -.167638063431D-07  .690000000000D+02
     .489606000000D+06  .400000000000D+01
23 12  5 18 18  0  0.0  .204079318792D-03 -.375166564481D-11  .000000000000D+00
     .970000000000D+02  .465625000000D+02  .492199073496D-08 -.221581473214D+01
     .224821269512D-05  .786757946480D-02  .202283263206D-05  .515363142395D+04
     .496800000000D+06 -.596046447754D-07  .112588898164D+01 -.165775418282D-06
     .960180613982D+00  .345531250000D+03 -.301293489823D+01 -.845749514576D-08
     .250010413937D-09  .100000000000D+01  .168800000000D+04  .000000000000D+00
     .240000000000D+01  .000000000000D+00 -.200234353542D-07  .970000000000D+02
     .489606000000D+06  .400000000000D+01
25 12  5 18 18  0  0.0  .341632403433D-04  .454747350886D-12  .000000000000D+00
     .420000000000D+02 -.176875000000D+02  .417017370447D-08  .105482764231D+01
    -.838190317154D-06  .166422361508D-02  .108145177364D-04  .515371812057D+04
     .496800000000D+06 -.335276126862D-07 -.308562993230D+01  .372529029846D-07
     .968913019231D+00  .174187500000D+03  .666720217196D+00 -.775925177541D-08
     .258939357292D-09  .100000000000D+01  .168800000000D+04  .000000000000D+00
     .240000000000D+01  .000000000000D+00  .558793544769D-08  .420000000000D+02
     .489606000000D+06  .400000000000D+01
26 12  5 18 18  0  0.0 -.397628638893D-03  .932232069317D-11  .000000000000D+00
     .160000000000D+02  .324687500000D+02  .429160733410D-08 -.236437704744D+01
     .157393515110D-05  .209354265826D-01  .118091702461D-05  .515366398621D+04
     .496800000000D+06  .316649675369D-06  .119847488495D+01  .223517417908D-07
     .983249078054D+00  .364031250000D+03  .119538170559D+01 -.791032949697D-08
     .316084594764D-09  .100000000000D+01  .168800000000D+04  .000000000000D+00
     .240000000000D+01  .000000000000D+00 -.605359673500D-08  .160000000000D+02
     .489606000000D+06  .400000000000D+01
27 12  5 18 18  0  0.0  .389295164496D-03  .397903932026D-11  .000000000000D+00
     .610000000000D+02 -.931875000000D+02  .417017370447D-08 -.147294517726D+01
    -.466406345367D-05  .217056350084D-01  .640936195850D-05  .515373479080D+04
     .496800000000D+06 -.549480319023D-06  .212282985378D+01  .139698386192D-06
     .981866977421D+00  .271875000000D+03 -.108427367727D+01 -.812855287257D-08
    -.233581158164D-09  .100000000000D+01  .168800000000D+04  .000000000000D+00
     .485000000000D+01  .000000000000D+00 -.419095158577D-08  .610000000000D+02
     .489606000000D+06  .400000000000D+01
28 12  5 18 18  0  0.0  .145393889397D-03  .397903932026D-11  .000000000000D+00
     .310000000000D+02 -.229687500000D+02  .404195407790D-08 -.400301638741D+00
    -.112690031528D-05  .178384720348D-01  .106133520603D-04  .515363277054D+04
     .496800000000D+06 -.137835741043D-06 -.302679973651D+01  .128522515297D-06
     .979258753943D+00  .187656250000D+03 -.182844731097D+01 -.799283293357D-08
     .294655130712D-09  .100000000000D+01  .168800000000D+04  .000000000000D+00
     .240000000000D+01  .000000000000D+00 -.107102096081D-07  .310000000000D+02
     .489606000000D+06  .400000000000D+01
